GORIZONT 25             
1 21922U 92017A   09160.98879609 -.00000291  00000-0  10000-3 0  2043
2 21922  11.4871  42.4524 0027449 299.0660  60.6041  0.99858714 62870
GORIZONT 26             
1 22041U 92043A   09160.05849395 -.00000277  00000-0  10000-3 0  8402
2 22041  11.3445  43.8329 0029243 102.0121 258.2462  0.99244091 61795
GORIZONT 27             
1 22245U 92082A   09160.98645723 -.00000208  00000-0  10000-3 0  4558
2 22245  11.2549  44.9598 0014871 227.6091 132.2083  1.00223239 64872
GORIZONT 28             
1 22880U 93069A   09161.24119203  .00000025  00000-0  10000-3 0  1832
2 22880  10.7778  48.2762 0032967 357.4860 133.5799  0.99655694 57193
GORIZONT 29             
1 22907U 93072A   09160.01688552 -.00000270  00000-0  10000-3 0  6690
2 22907  10.7519  48.3911 0012443 206.3472 153.5054  1.00163709 56943
GORIZONT 30             
1 23108U 94030A   09157.48504161 -.00000163  00000-0  10000-3 0  4913
2 23108  10.5887  49.7357 0001570 201.4908 158.3934  1.00290049 55128
GORIZONT 31             
1 23775U 96005A   09161.35878294  .00000103  00000-0  10000-3 0  8376
2 23775   9.5534  55.4648 0020044  66.3693 293.7420  0.99891874 48966
GORIZONT 32             
1 23880U 96034A   09161.90849656 -.00000113  00000-0  10000-3 0  2271
2 23880   9.4185  56.5635 0001839 343.8373 172.2996  1.00270089 47770
GORIZONT 33             
1 26372U 00029A   09161.42097834  .00000090  00000-0  10000-3 0  6254
2 26372   6.6652  65.6257 0002761 323.8823  35.9139  1.00215015 33105
